{
"type": "FeatureCollection",
"name": "canary_wharf",
"crs": { "type": "name", "properties": { "name": "urn:ogc:def:crs:EPSG::27700" } },
"features": [
{ "type": "Feature", "properties": { "lsoa21cd": "E01032782", "lsoa21nm": "Tower Hamlets 033D", "msoa21cd": "E02006854", "msoa21nm": "Tower Hamlets 033", "lad22cd": "E09000030", "lad22nm": "Tower Hamlets" }, "geometry": { "type": "Polygon", "coordinates": [ [ [ 537382.374399999971502, 179897.7948 ], [ 537376.846000000019558, 179896.730000000010477 ], [ 537375.608, 179896.494000000995584 ], [ 537373.0, 179896.0 ], [ 537369.0, 179895.0 ], [ 537367.0, 179892.0 ], [ 537365.0, 179890.0 ], [ 537362.680000000051223, 179878.402000000991393 ], [ 537362.432000000029802, 179877.159000000014203 ], [ 537362.0, 179875.0 ], [ 537361.287999999942258, 179875.188999998994404 ], [ 537328.0, 179884.0 ], [ 537319.905999999959022, 179886.698100000998238 ], [ 537310.000699999975041, 179890.0 ], [ 537303.0, 179895.0 ], [ 537298.599000000045635, 179897.6400000010035 ], [ 537298.256700000027195, 179897.3476 ], [ 537293.283999999985099, 179893.1 ], [ 537273.645999999949709, 179876.322000001004199 ], [ 537268.677999999956228, 179876.244000000995584 ], [ 537267.998999999952503, 179876.232999998988817 ], [ 537267.998999999952503, 179863.714400000986643 ], [ 537267.998999999952503, 179863.0 ], [ 537273.148000000044703, 179862.594000001001405 ], [ 537272.550000000046566, 179846.1170000009879 ], [ 537272.785000000032596, 179844.120999998995103 ], [ 537273.437999999965541, 179841.741 ], [ 537268.12699999997858, 179836.252 ], [ 537266.849999999976717, 179834.267000001011183 ], [ 537265.927000000025146, 179833.709000000992091 ], [ 537258.584999999962747, 179826.267000001011183 ], [ 537252.961000000010245, 179823.176999999006512 ], [ 537249.696, 179821.384 ], [ 537245.336000000010245, 179826.498 ], [ 537242.799, 179829.473999998997897 ], [ 537241.677999999956228, 179830.079 ], [ 537229.425999999977648, 179840.357000001007691 ], [ 537229.062900000018999, 179840.369000000995584 ], [ 537226.032, 179834.807 ], [ 537224.003000000026077, 179828.9920000009879 ], [ 537223.165000000037253, 179823.232999998988817 ], [ 537222.883999999961816, 179821.300000001006993 ], [ 537223.351999999955297, 179812.051000000996282 ], [ 537223.738999999943189, 179804.413000000989996 ], [ 537209.0, 179804.0 ], [ 537198.5, 179803.4749 ], [ 537186.665000000037253, 179802.8829999990121 ], [ 537194.39000000001397, 179794.534000000014203 ], [ 537196.78000000002794, 179791.949999998993007 ], [ 537196.547799999942072, 179791.26600000099279 ], [ 537187.121999999973923, 179763.5 ], [ 537173.0834, 179753.003300000011222 ], [ 537162.579000000027008, 179752.478599999012658 ], [ 537153.0, 179752.0 ], [ 537151.0, 179752.0 ], [ 537151.206, 179749.23399999900721 ], [ 537151.636999999987893, 179743.448000000993488 ], [ 537153.653999999980442, 179716.35899999900721 ], [ 537154.680000000051223, 179702.58599999899161 ], [ 537161.283999999985099, 179613.901000001002103 ], [ 537163.557000000029802, 179583.381999998993706 ], [ 537165.0, 179564.0 ], [ 537165.0, 179562.0 ], [ 537163.0, 179558.0 ], [ 537160.0, 179557.00099999998929 ], [ 537158.486000000033528, 179556.822000001004199 ], [ 537140.51500000001397, 179554.708000001002802 ], [ 537129.988999999943189, 179553.469000001001405 ], [ 537126.0, 179553.0 ], [ 537124.927000000025146, 179566.816 ], [ 537124.875, 179567.482000001007691 ], [ 537124.437999999965541, 179573.10899999900721 ], [ 537122.983, 179591.85 ], [ 537122.692000000039116, 179595.594000001001405 ], [ 537122.650999999954365, 179596.123 ], [ 537120.966000000014901, 179617.811000001005596 ], [ 537120.493999999947846, 179623.892000001011183 ], [ 537120.184, 179627.878 ], [ 537118.540099999983795, 179649.045000000012806 ], [ 537118.0, 179656.0 ], [ 537094.741000000038184, 179654.314999999012798 ], [ 537087.974999999976717, 179653.818999999988591 ], [ 537078.143999999971129, 179653.097999999008607 ], [ 537070.687999999965541, 179654.89100000099279 ], [ 537063.312999999965541, 179682.23399999900721 ], [ 537080.196, 179721.846999998990213 ], [ 537091.846000000019558, 179722.272999999986496 ], [ 537113.365, 179724.555 ], [ 537113.197999999974854, 179726.2741 ], [ 537112.643999999971129, 179731.977000000013504 ], [ 537112.998999999952503, 179732.0 ], [ 537112.998999999952503, 179732.666999998997198 ], [ 537112.556800000020303, 179739.454999999987194 ], [ 537112.0, 179748.0 ], [ 537112.0, 179750.0 ], [ 537111.97199999995064, 179750.46099999899161 ], [ 537109.959299999987707, 179783.331 ], [ 537109.0, 179799.0 ], [ 537130.87300000002142, 179800.094000001001405 ], [ 537140.216000000014901, 179800.561000001005596 ], [ 537152.5, 179808.5 ], [ 537154.914499999955297, 179815.756100000988226 ], [ 537160.691400000010617, 179833.1164 ], [ 537164.312999999965541, 179844.0 ], [ 537158.25, 179862.328 ], [ 537162.028999999980442, 179869.10899999900721 ], [ 537172.687999999965541, 179888.23399999900721 ], [ 537152.243999999947846, 179915.312000000994885 ], [ 537152.287999999942258, 179916.096000001009088 ], [ 537151.628999999957159, 179916.127 ], [ 537115.207000000053085, 179917.847999999008607 ], [ 537112.0, 179918.0 ], [ 537112.035999999963678, 179919.307999999989988 ], [ 537112.162999999942258, 179923.85899999900721 ], [ 537112.584000000031665, 179939.006999998993706 ], [ 537112.998999999952503, 179954.0 ], [ 537114.0, 179962.99900000001071 ], [ 537114.0, 179985.806000000011409 ], [ 537114.0, 179992.878 ], [ 537114.0, 179993.5 ], [ 537114.0, 180000.0 ], [ 537114.0, 180009.0 ], [ 537114.859000000054948, 180015.870999998995103 ], [ 537117.0, 180033.0 ], [ 537118.03000000002794, 180042.01 ], [ 537121.0, 180068.0 ], [ 537124.108, 180090.377 ], [ 537126.0, 180104.0 ], [ 537125.0, 180128.0 ], [ 537124.0, 180137.0 ], [ 537126.0, 180148.0 ], [ 537133.0, 180162.0 ], [ 537136.0, 180162.0 ], [ 537138.0, 180162.0 ], [ 537146.0, 180155.0 ], [ 537150.65300000004936, 180140.111 ], [ 537151.0, 180139.0 ], [ 537154.89000000001397, 180129.924000000988599 ], [ 537156.495, 180126.179 ], [ 537157.0, 180125.0 ], [ 537157.0, 180121.0 ], [ 537161.0, 180089.0 ], [ 537161.854000000050291, 180084.447000001004199 ], [ 537201.194000000017695, 180078.26600000099279 ], [ 537241.614700000034645, 180071.9156 ], [ 537244.814000000013039, 180071.413000000989996 ], [ 537251.900000000023283, 180070.300000001006993 ], [ 537258.687999999965541, 180069.394999999989523 ], [ 537315.623999999952503, 180061.816 ], [ 537421.682999999960884, 180047.695 ], [ 537416.341000000014901, 180017.097999999008607 ], [ 537395.966200000024401, 179900.4058 ], [ 537382.374399999971502, 179897.7948 ] ] ] } },
{ "type": "Feature", "properties": { "lsoa21cd": "E01032771", "lsoa21nm": "Tower Hamlets 033B", "msoa21cd": "E02006854", "msoa21nm": "Tower Hamlets 033", "lad22cd": "E09000030", "lad22nm": "Tower Hamlets" }, "geometry": { "type": "Polygon", "coordinates": [ [ [ 537462.897, 180356.184 ], [ 537500.0, 180350.0 ], [ 537555.0, 180343.0 ], [ 537599.0, 180336.0 ], [ 537621.0, 180333.0 ], [ 537623.78000000002794, 180330.914999998989515 ], [ 537625.0, 180330.0 ], [ 537627.0, 180328.0 ], [ 537629.0, 180324.0 ], [ 537629.0, 180322.0 ], [ 537625.0, 180292.0 ], [ 537645.876000000047497, 180289.277000000991393 ], [ 537658.446, 180287.636999999987893 ], [ 537720.206, 180279.582 ], [ 537740.0, 180277.0 ], [ 537821.832000000053085, 180263.658 ], [ 537832.0, 180262.0 ], [ 537833.206, 180261.824999998993007 ], [ 537859.481000000028871, 180258.01600000099279 ], [ 537859.202999999979511, 180256.1373 ], [ 537859.0, 180254.76600000099279 ], [ 537854.185999999986961, 180222.49900000001071 ], [ 537853.915000000037253, 180220.682 ], [ 537853.0, 180214.547 ], [ 537853.437999999965541, 180210.172 ], [ 537856.25, 180207.780999998998595 ], [ 537858.584999999962747, 180207.219000001001405 ], [ 537859.75, 180206.937999999005115 ], [ 537876.483, 180204.380999999004416 ], [ 537964.0268, 180190.9998 ], [ 537969.75, 180190.125 ], [ 537969.448300000047311, 180187.630899998999666 ], [ 537967.75, 180173.594000001001405 ], [ 537952.335199999972247, 180076.331900001008762 ], [ 537951.5, 180071.062000000994885 ], [ 537890.625, 180079.594000001001405 ], [ 537884.875, 180079.469000001001405 ], [ 537881.75, 180076.155999998998595 ], [ 537877.375, 180048.405999998998595 ], [ 537876.723, 180044.142999998992309 ], [ 537874.812999999965541, 180031.655999998998595 ], [ 537846.047000000020489, 179975.673 ], [ 537806.562999999965541, 179898.828 ], [ 537796.937999999965541, 179790.969000001001405 ], [ 537795.822000000043772, 179779.74 ], [ 537795.756000000052154, 179779.083000001002802 ], [ 537795.593, 179777.435000000987202 ], [ 537793.52800000004936, 179756.668 ], [ 537793.312999999965541, 179754.48399999900721 ], [ 537789.71999999997206, 179754.87599999998929 ], [ 537786.962999999988824, 179755.176999999006512 ], [ 537771.25, 179756.892000001011183 ], [ 537771.008999999961816, 179751.555 ], [ 537770.332999999984168, 179736.59 ], [ 537767.728, 179678.836999999010004 ], [ 537764.756000000052154, 179613.022999999986496 ], [ 537764.598699999973178, 179609.540200001007179 ], [ 537763.998999999952503, 179596.2579999990121 ], [ 537755.375, 179600.047 ], [ 537653.75, 179670.594000001001405 ], [ 537652.125, 179670.85899999900721 ], [ 537622.220300000044517, 179673.708900000987342 ], [ 537619.711000000010245, 179673.948000000993488 ], [ 537621.32999999995809, 179697.196 ], [ 537621.770000000018626, 179703.5165 ], [ 537622.251000000047497, 179710.425000001006993 ], [ 537623.052999999956228, 179721.941 ], [ 537623.093, 179722.293 ], [ 537624.5196, 179734.972899999003857 ], [ 537624.929299999959767, 179738.614 ], [ 537666.055999999982305, 179735.872 ], [ 537666.816, 179735.821 ], [ 537666.351999999955297, 179737.25 ], [ 537667.758000000030734, 179743.812999999005115 ], [ 537678.287600000039674, 179792.951400001009461 ], [ 537678.898000000044703, 179795.800000001006993 ], [ 537671.077000000048429, 179797.068 ], [ 537653.0, 179800.0 ], [ 537630.0, 179801.0 ], [ 537628.0, 179801.0 ], [ 537607.87699999997858, 179804.482999998988817 ], [ 537605.231000000028871, 179804.941 ], [ 537589.893000000040047, 179807.595000000990694 ], [ 537585.751000000047497, 179808.312000000994885 ], [ 537576.0, 179810.0 ], [ 537567.05039999994915, 179812.5569 ], [ 537563.026700000045821, 179813.706499999010703 ], [ 537553.407200000016019, 179816.4548 ], [ 537551.408000000054017, 179817.026000001002103 ], [ 537531.207000000053085, 179822.798 ], [ 537527.0, 179824.0 ], [ 537520.631000000052154, 179825.886999999987893 ], [ 537519.802000000025146, 179826.1329999990121 ], [ 537500.0, 179832.0 ], [ 537467.0, 179841.0 ], [ 537466.567000000039116, 179836.3829999990121 ], [ 537466.49620000005234, 179835.627900001010858 ], [ 537464.854000000050291, 179818.107999998988817 ], [ 537464.0, 179809.0 ], [ 537463.87, 179806.863000000012107 ], [ 537463.23499999998603, 179796.256999998993706 ], [ 537461.538999999989755, 179769.9805 ], [ 537439.375, 179776.312999999005115 ], [ 537433.0, 179775.25 ], [ 537424.625, 179772.75 ], [ 537421.687999999965541, 179771.125 ], [ 537423.937999999965541, 179689.73399999900721 ], [ 537408.812999999965541, 179682.51600000099279 ], [ 537383.873999999952503, 179717.328 ], [ 537357.437999999965541, 179737.657 ], [ 537324.687999999965541, 179742.328 ], [ 537334.875, 179768.578 ], [ 537335.812999999965541, 179776.5 ], [ 537333.875, 179783.0 ], [ 537331.312999999965541, 179786.969000001001405 ], [ 537325.75, 179792.203 ], [ 537324.5, 179793.01600000099279 ], [ 537317.937999999965541, 179798.719000001001405 ], [ 537321.687999999965541, 179805.280999998998595 ], [ 537321.361000000033528, 179807.652000000991393 ], [ 537317.0, 179807.0 ], [ 537316.0, 179807.0 ], [ 537274.27800000004936, 179805.831 ], [ 537223.738999999943189, 179804.413000000989996 ], [ 537223.351999999955297, 179812.051000000996282 ], [ 537222.883999999961816, 179821.300000001006993 ], [ 537223.165000000037253, 179823.232999998988817 ], [ 537224.003000000026077, 179828.9920000009879 ], [ 537226.032, 179834.807 ], [ 537229.062900000018999, 179840.369000000995584 ], [ 537229.425999999977648, 179840.357000001007691 ], [ 537241.677999999956228, 179830.079 ], [ 537242.799, 179829.473999998997897 ], [ 537245.336000000010245, 179826.498 ], [ 537249.696, 179821.384 ], [ 537252.961000000010245, 179823.176999999006512 ], [ 537258.584999999962747, 179826.267000001011183 ], [ 537265.927000000025146, 179833.709000000992091 ], [ 537266.849999999976717, 179834.267000001011183 ], [ 537268.12699999997858, 179836.252 ], [ 537273.437999999965541, 179841.741 ], [ 537272.785000000032596, 179844.120999998995103 ], [ 537272.550000000046566, 179846.1170000009879 ], [ 537273.148000000044703, 179862.594000001001405 ], [ 537267.998999999952503, 179863.0 ], [ 537267.998999999952503, 179863.714400000986643 ], [ 537267.998999999952503, 179876.232999998988817 ], [ 537268.677999999956228, 179876.244000000995584 ], [ 537273.645999999949709, 179876.322000001004199 ], [ 537293.283999999985099, 179893.1 ], [ 537298.256700000027195, 179897.3476 ], [ 537298.599000000045635, 179897.6400000010035 ], [ 537303.0, 179895.0 ], [ 537310.000699999975041, 179890.0 ], [ 537319.905999999959022, 179886.698100000998238 ], [ 537328.0, 179884.0 ], [ 537361.287999999942258, 179875.188999998994404 ], [ 537362.0, 179875.0 ], [ 537362.432000000029802, 179877.159000000014203 ], [ 537362.680000000051223, 179878.402000000991393 ], [ 537365.0, 179890.0 ], [ 537367.0, 179892.0 ], [ 537369.0, 179895.0 ], [ 537373.0, 179896.0 ], [ 537375.608, 179896.494000000995584 ], [ 537376.846000000019558, 179896.730000000010477 ], [ 537382.374399999971502, 179897.7948 ], [ 537395.966200000024401, 179900.4058 ], [ 537416.341000000014901, 180017.097999999008607 ], [ 537421.682999999960884, 180047.695 ], [ 537315.623999999952503, 180061.816 ], [ 537258.687999999965541, 180069.394999999989523 ], [ 537251.900000000023283, 180070.300000001006993 ], [ 537244.814000000013039, 180071.413000000989996 ], [ 537241.614700000034645, 180071.9156 ], [ 537201.194000000017695, 180078.26600000099279 ], [ 537161.854000000050291, 180084.447000001004199 ], [ 537161.0, 180089.0 ], [ 537157.0, 180121.0 ], [ 537157.0, 180125.0 ], [ 537156.495, 180126.179 ], [ 537154.89000000001397, 180129.924000000988599 ], [ 537151.0, 180139.0 ], [ 537150.65300000004936, 180140.111 ], [ 537146.0, 180155.0 ], [ 537138.0, 180162.0 ], [ 537136.0, 180162.0 ], [ 537133.0, 180162.0 ], [ 537131.0, 180162.0 ], [ 537126.0, 180164.0 ], [ 537121.0, 180167.0 ], [ 537119.0, 180170.0 ], [ 537118.0, 180171.0 ], [ 537117.0, 180176.0 ], [ 537116.0, 180184.0 ], [ 537116.0, 180188.0 ], [ 537118.0, 180193.0 ], [ 537121.0, 180197.0 ], [ 537122.0, 180199.0 ], [ 537123.0, 180201.0 ], [ 537126.0, 180212.0 ], [ 537126.0, 180219.0 ], [ 537123.0, 180232.0 ], [ 537119.0, 180240.0 ], [ 537120.0, 180251.0 ], [ 537120.0, 180261.0 ], [ 537109.692000000039116, 180278.445 ], [ 537119.42000000004191, 180281.636 ], [ 537157.177000000025146, 180294.019999999989523 ], [ 537207.302000000025146, 180310.460000001010485 ], [ 537218.939000000013039, 180315.373 ], [ 537236.243000000016764, 180311.937000000994885 ], [ 537241.253999999957159, 180342.630999999004416 ], [ 537243.701, 180357.6170000009879 ], [ 537263.0, 180355.0 ], [ 537267.998999999952503, 180355.0 ], [ 537270.0, 180356.0 ], [ 537273.0, 180358.0 ], [ 537278.0, 180377.0 ], [ 537279.0, 180378.0 ], [ 537281.0, 180380.0 ], [ 537285.0, 180381.0 ], [ 537288.0, 180382.0 ], [ 537291.0, 180382.0 ], [ 537307.729999999981374, 180379.479 ], [ 537364.0, 180371.0 ], [ 537422.0, 180362.0 ], [ 537424.885, 180361.679 ], [ 537430.986000000033528, 180361.002 ], [ 537440.0, 180360.0 ], [ 537462.897, 180356.184 ] ] ] } },
{ "type": "Feature", "properties": { "lsoa21cd": "E01032780", "lsoa21nm": "Tower Hamlets 035D", "msoa21cd": "E02007113", "msoa21nm": "Tower Hamlets 035", "lad22cd": "E09000030", "lad22nm": "Tower Hamlets" }, "geometry": { "type": "Polygon", "coordinates": [ [ [ 538460.797999999951571, 180649.4 ], [ 538476.241000000038184, 180643.606000000989297 ], [ 538490.506000000052154, 180638.253 ], [ 538492.0, 180639.0 ], [ 538500.0, 180642.00099999998929 ], [ 538528.0, 180655.0 ], [ 538535.0, 180644.99900000001071 ], [ 538512.9179, 180634.8081 ], [ 538509.0, 180633.0 ], [ 538506.621000000042841, 180632.207 ], [ 538501.961000000010245, 180630.653999998990912 ], [ 538453.0, 180615.0 ], [ 538444.0, 180608.0 ], [ 538443.5, 180607.125 ], [ 538440.0, 180601.0 ], [ 538439.0, 180597.0 ], [ 538425.2511, 180594.6527 ], [ 538410.990899999975227, 180592.218 ], [ 538398.0, 180590.0 ], [ 538401.2047, 180570.770500001002802 ], [ 538403.008999999961816, 180559.943999999988591 ], [ 538405.984000000054948, 180542.095000000990694 ], [ 538408.400999999954365, 180536.079999999987194 ], [ 538419.71999999997206, 180507.914999998989515 ], [ 538424.731999999959953, 180502.340999999985797 ], [ 538442.314999999944121, 180506.464 ], [ 538453.476999999955297, 180509.082 ], [ 538454.288300000014715, 180506.1611 ], [ 538456.0, 180500.0 ], [ 538457.637899999972433, 180494.130799998994917 ], [ 538463.562999999965541, 180472.899 ], [ 538468.0, 180457.0 ], [ 538464.175999999977648, 180455.99900000001071 ], [ 538452.868000000016764, 180453.037000000011176 ], [ 538455.378999999957159, 180415.7420000009879 ], [ 538455.517, 180413.688999998994404 ], [ 538456.67000000004191, 180409.208000001002802 ], [ 538452.731999999959953, 180406.557 ], [ 538445.084000000031665, 180401.41 ], [ 538444.086000000010245, 180400.549000000988599 ], [ 538442.0, 180398.75099999998929 ], [ 538440.346000000019558, 180397.325999999011401 ], [ 538430.996000000042841, 180389.264 ], [ 538429.532, 180388.002 ], [ 538427.285000000032596, 180384.903000001009787 ], [ 538424.672000000020489, 180388.204 ], [ 538412.22199999995064, 180403.93 ], [ 538409.0, 180408.0 ], [ 538403.0, 180440.0 ], [ 538402.915999999968335, 180440.505000000994187 ], [ 538402.705500000040047, 180441.681500000995584 ], [ 538379.351000000024214, 180443.856000000989297 ], [ 538385.0, 180414.0 ], [ 538386.0, 180401.0 ], [ 538385.532, 180397.2579999990121 ], [ 538383.998999999952503, 180385.0 ], [ 538386.0, 180372.0 ], [ 538386.995800000033341, 180351.0912 ], [ 538387.275000000023283, 180351.025 ], [ 538398.0, 180352.0 ], [ 538398.0, 180346.574999998993007 ], [ 538398.0, 180337.0 ], [ 538397.0, 180327.0 ], [ 538395.0, 180317.0 ], [ 538394.545999999972992, 180316.546 ], [ 538394.113999999943189, 180316.114 ], [ 538391.0, 180306.0 ], [ 538387.591000000014901, 180297.236 ], [ 538385.310999999986961, 180291.373 ], [ 538384.24, 180288.619000000995584 ], [ 538383.998999999952503, 180288.0 ], [ 538375.322000000043772, 180289.085000001010485 ], [ 538375.0, 180286.0 ], [ 538362.0, 180252.0 ], [ 538354.913900000043213, 180244.913899998995475 ], [ 538357.555000000051223, 180243.574999998993007 ], [ 538360.496999999973923, 180242.16400000100839 ], [ 538361.400000000023283, 180230.774 ], [ 538361.601000000024214, 180228.241 ], [ 538367.569999999948777, 180224.71099999899161 ], [ 538367.400999999954365, 180224.203 ], [ 538366.0, 180220.0 ], [ 538365.842700000037439, 180219.501599998999154 ], [ 538364.055999999982305, 180213.842 ], [ 538363.557999999960884, 180212.26600000099279 ], [ 538358.981000000028871, 180197.772999999986496 ], [ 538354.0, 180182.0 ], [ 538351.167000000015832, 180174.563999998994404 ], [ 538350.395999999949709, 180174.528999998990912 ], [ 538350.09699999995064, 180171.755999999004416 ], [ 538346.0, 180161.0 ], [ 538340.09699999995064, 180141.206 ], [ 538335.576, 180126.049000000988599 ], [ 538331.415000000037253, 180112.096000001009088 ], [ 538330.537999999942258, 180109.155999998998595 ], [ 538329.0, 180104.0 ], [ 538327.712000000057742, 180099.494000000995584 ], [ 538324.98789999994915, 180089.935399999987567 ], [ 538321.998999999952503, 180077.0 ], [ 538321.478, 180074.786 ], [ 538317.895000000018626, 180059.557 ], [ 538317.124599999981001, 180056.280099999014055 ], [ 538317.091800000052899, 180056.1415 ], [ 538315.290999999968335, 180048.488000000012107 ], [ 538314.0, 180043.0 ], [ 538312.0, 180027.0 ], [ 538311.643999999971129, 180024.153000001009787 ], [ 538310.0, 180011.0 ], [ 538307.913799999980256, 180003.350099998991936 ], [ 538307.0, 180000.0 ], [ 538307.70499999995809, 179992.952 ], [ 538308.0, 179990.0 ], [ 538308.0, 179989.375 ], [ 538308.000400000018999, 179966.083600000012666 ], [ 538298.0, 179965.0 ], [ 538296.0, 179965.0 ], [ 538293.0, 179962.99900000001071 ], [ 538290.0, 179961.0 ], [ 538289.0, 179959.0 ], [ 538285.0, 179952.0 ], [ 538283.0, 179950.0 ], [ 538281.0, 179949.0 ], [ 538279.0, 179949.0 ], [ 538265.1753, 179951.285800001001917 ], [ 538250.0, 179953.795000000012806 ], [ 538239.343, 179955.557 ], [ 538238.821, 179946.673 ], [ 538237.35999999998603, 179921.842 ], [ 538215.863999999943189, 179923.267999998992309 ], [ 538214.447999999974854, 179923.361 ], [ 538213.817000000039116, 179923.403000001009787 ], [ 538200.996000000042841, 179924.254000001004897 ], [ 538193.111000000033528, 179889.33599999899161 ], [ 538206.733, 179887.457 ], [ 538196.560000000055879, 179835.840999999985797 ], [ 538195.783000000054017, 179835.954999999987194 ], [ 538196.670999999972992, 179830.62599999998929 ], [ 538200.849999999976717, 179821.432 ], [ 538198.10999999998603, 179806.577 ], [ 538192.839000000036322, 179778.0 ], [ 538192.15500000002794, 179774.290999999007909 ], [ 538192.091999999945983, 179773.952 ], [ 538191.077000000048429, 179773.064999999012798 ], [ 538190.596000000019558, 179769.973999998997897 ], [ 538191.079000000027008, 179768.460000001010485 ], [ 538186.493999999947846, 179743.605000000010477 ], [ 538185.226000000024214, 179735.454 ], [ 538185.0, 179734.0 ], [ 538178.481999999959953, 179732.495999998995103 ], [ 538172.0, 179731.0 ], [ 538162.0, 179729.0 ], [ 538145.0, 179728.0 ], [ 538140.0, 179728.0 ], [ 538111.0, 179731.0 ], [ 538088.966999999945983, 179733.977000000013504 ], [ 538069.337999999988824, 179736.630000000994187 ], [ 538059.133999999961816, 179738.009 ], [ 538031.35999999998603, 179741.761999999987893 ], [ 538022.366000000038184, 179742.977000000013504 ], [ 538017.941, 179743.574999998993007 ], [ 538000.0, 179745.99900000001071 ], [ 537994.856000000028871, 179746.935000000987202 ], [ 537994.682999999960884, 179746.14100000099279 ], [ 537988.940900000045076, 179746.882099998998456 ], [ 537989.0, 179748.0 ], [ 537987.0, 179748.0 ], [ 537949.143000000040047, 179755.011 ], [ 537917.585500000044703, 179760.854699999006698 ], [ 537906.0, 179763.0 ], [ 537887.3859, 179765.954600000986829 ], [ 537874.050700000021607, 179768.071300000010524 ], [ 537843.0, 179773.0 ], [ 537795.822000000043772, 179779.74 ], [ 537796.937999999965541, 179790.969000001001405 ], [ 537806.562999999965541, 179898.828 ], [ 537846.047000000020489, 179975.673 ], [ 537874.812999999965541, 180031.655999998998595 ], [ 537876.723, 180044.142999998992309 ], [ 537877.375, 180048.405999998998595 ], [ 537881.75, 180076.155999998998595 ], [ 537884.875, 180079.469000001001405 ], [ 537890.625, 180079.594000001001405 ], [ 537951.5, 180071.062000000994885 ], [ 537952.335199999972247, 180076.331900001008762 ], [ 537967.75, 180173.594000001001405 ], [ 537969.448300000047311, 180187.630899998999666 ], [ 537969.75, 180190.125 ], [ 537964.0268, 180190.9998 ], [ 537876.483, 180204.380999999004416 ], [ 537859.75, 180206.937999999005115 ], [ 537858.584999999962747, 180207.219000001001405 ], [ 537856.25, 180207.780999998998595 ], [ 537853.437999999965541, 180210.172 ], [ 537853.0, 180214.547 ], [ 537853.915000000037253, 180220.682 ], [ 537854.185999999986961, 180222.49900000001071 ], [ 537859.0, 180254.76600000099279 ], [ 537859.202999999979511, 180256.1373 ], [ 537859.481000000028871, 180258.01600000099279 ], [ 537860.437999999965541, 180264.48399999900721 ], [ 537865.398999999975786, 180295.578 ], [ 537866.75, 180304.047 ], [ 537870.5, 180306.98399999900721 ], [ 537915.564000000013039, 180300.812000000994885 ], [ 537918.687999999965541, 180301.23399999900721 ], [ 537924.687999999965541, 180302.172 ], [ 537930.0, 180301.98399999900721 ], [ 537935.0, 180301.10899999900721 ], [ 537939.375, 180299.672 ], [ 537943.75, 180297.562000000994885 ], [ 537980.998999999952503, 180291.469000001001405 ], [ 537983.812999999965541, 180292.203 ], [ 537986.126000000047497, 180294.547 ], [ 537987.875, 180300.844000001001405 ], [ 538031.312999999965541, 180276.14100000099279 ], [ 538043.875, 180289.48399999900721 ], [ 537994.248999999952503, 180319.51600000099279 ], [ 537991.75, 180321.797 ], [ 537990.687999999965541, 180324.547 ], [ 537991.125, 180328.905999998998595 ], [ 537991.515999999945052, 180331.579 ], [ 537998.85999999998603, 180381.720000000990694 ], [ 538005.375, 180426.203 ], [ 537977.0, 180430.437000000994885 ], [ 537977.812999999965541, 180436.687000000994885 ], [ 537980.687999999965541, 180456.35899999900721 ], [ 537988.59499999997206, 180455.227000000013504 ], [ 538012.125, 180451.85899999900721 ], [ 538015.163999999989755, 180472.699999998993007 ], [ 538017.50199999997858, 180488.730000000010477 ], [ 538017.601000000024214, 180489.409000000014203 ], [ 538017.745, 180490.397 ], [ 538020.1078, 180506.605599998991238 ], [ 538043.368299999972805, 180502.7563 ], [ 538050.150000000023283, 180550.267999998992309 ], [ 538052.236000000033528, 180564.880000000994187 ], [ 538054.363000000012107, 180579.779999999009306 ], [ 538054.615, 180581.546 ], [ 538057.0, 180582.0 ], [ 538095.503999999957159, 180589.404999999009306 ], [ 538096.765999999945052, 180589.647 ], [ 538109.0, 180592.0 ], [ 538114.126000000047497, 180593.329 ], [ 538137.01500000001397, 180596.062000000994885 ], [ 538140.148000000044703, 180592.206 ], [ 538141.005, 180591.151000001002103 ], [ 538148.383999999961816, 180582.07 ], [ 538155.392, 180573.443999999988591 ], [ 538158.911100000026636, 180574.010799999989104 ], [ 538176.63, 180576.864 ], [ 538181.892, 180577.71099999899161 ], [ 538183.77800000004936, 180578.0150000010035 ], [ 538250.0, 180588.677999998995801 ], [ 538252.0, 180589.0 ], [ 538256.116000000038184, 180588.625900000013644 ], [ 538263.0, 180588.0 ], [ 538268.0, 180587.0 ], [ 538272.0, 180586.0 ], [ 538286.0, 180580.00099999998929 ], [ 538287.0, 180580.00099999998929 ], [ 538289.376000000047497, 180577.228 ], [ 538293.0, 180573.0 ], [ 538296.0, 180571.0 ], [ 538301.0, 180568.0 ], [ 538304.854000000050291, 180566.287000000011176 ], [ 538310.0, 180564.0 ], [ 538316.0, 180564.0 ], [ 538319.285999999963678, 180564.0 ], [ 538322.397, 180564.0 ], [ 538323.0, 180564.0 ], [ 538330.0, 180565.0 ], [ 538341.0, 180568.0 ], [ 538345.0, 180569.0 ], [ 538348.299, 180571.356000000989297 ], [ 538352.0, 180574.0 ], [ 538359.0, 180579.0 ], [ 538361.0, 180581.0 ], [ 538365.0, 180585.0 ], [ 538368.0, 180589.0 ], [ 538369.0, 180592.0 ], [ 538373.0, 180601.0 ], [ 538377.0, 180605.0 ], [ 538375.0, 180622.0 ], [ 538372.547999999951571, 180621.182999999989988 ], [ 538372.0, 180621.0 ], [ 538371.878000000026077, 180621.551000000996282 ], [ 538370.0, 180630.0 ], [ 538370.915000000037253, 180630.305 ], [ 538371.229000000050291, 180630.409000000014203 ], [ 538372.355800000019372, 180630.785 ], [ 538373.0, 180631.0 ], [ 538368.0, 180644.999299999006325 ], [ 538370.118000000016764, 180644.99900000001071 ], [ 538372.0, 180644.99900000001071 ], [ 538380.0, 180644.0 ], [ 538400.0, 180646.4 ], [ 538405.0, 180647.0 ], [ 538417.0, 180649.0 ], [ 538437.0, 180653.0 ], [ 538445.185000000055879, 180655.2579999990121 ], [ 538460.797999999951571, 180649.4 ] ] ] } },
{ "type": "Feature", "properties": { "lsoa21cd": "E01004277", "lsoa21nm": "Tower Hamlets 033A", "msoa21cd": "E02006854", "msoa21nm": "Tower Hamlets 033", "lad22cd": "E09000030", "lad22nm": "Tower Hamlets" }, "geometry": { "type": "Polygon", "coordinates": [ [ [ 537424.562999999965541, 180688.51600000099279 ], [ 537424.937999999965541, 180684.51600000099279 ], [ 537436.75, 180684.625 ], [ 537444.042999999946915, 180683.991 ], [ 537445.562999999965541, 180683.85899999900721 ], [ 537456.707000000053085, 180681.802999998995801 ], [ 537458.689000000013039, 180681.437000000994885 ], [ 537467.75, 180678.779999999009306 ], [ 537477.437999999965541, 180674.26600000099279 ], [ 537480.256999999983236, 180672.769999999989523 ], [ 537513.375, 180655.203 ], [ 537514.613999999943189, 180654.60899999900721 ], [ 537517.54500000004191, 180653.203 ], [ 537532.687999999965541, 180645.937000000994885 ], [ 537546.998999999952503, 180638.85899999900721 ], [ 537551.319000000017695, 180636.975 ], [ 537558.189999999944121, 180633.979 ], [ 537558.751000000047497, 180633.73399999900721 ], [ 537570.812999999965541, 180629.280999998998595 ], [ 537580.25, 180626.078 ], [ 537599.75, 180620.937000000994885 ], [ 537610.687999999965541, 180618.453 ], [ 537615.707000000053085, 180617.662000000011176 ], [ 537626.937999999965541, 180615.89100000099279 ], [ 537646.75, 180613.187000000994885 ], [ 537685.375, 180607.453 ], [ 537706.800000000046566, 180604.299000000988599 ], [ 537730.062999999965541, 180600.875 ], [ 537735.878000000026077, 180600.046 ], [ 537743.979000000050291, 180598.892000001011183 ], [ 537748.652, 180598.226 ], [ 537760.650000000023283, 180596.51600000099279 ], [ 537781.812999999965541, 180593.5 ], [ 537805.687999999965541, 180591.703 ], [ 537830.689000000013039, 180589.922 ], [ 537841.619500000029802, 180589.3805 ], [ 537845.187999999965541, 180589.202 ], [ 537866.875, 180588.343 ], [ 537870.861000000033528, 180588.24 ], [ 537872.511000000056811, 180588.197000001004199 ], [ 537887.812999999965541, 180587.797 ], [ 537907.062999999965541, 180587.547 ], [ 537922.875, 180587.64100000099279 ], [ 537941.12300000002142, 180587.807 ], [ 537941.75, 180587.812000000994885 ], [ 537955.562999999965541, 180588.422 ], [ 537968.202999999979511, 180590.083000001002802 ], [ 537982.471000000019558, 180591.957 ], [ 538022.75, 180597.25 ], [ 538030.376000000047497, 180598.35899999900721 ], [ 538038.0, 180600.562000000994885 ], [ 538044.437999999965541, 180603.078 ], [ 538052.375, 180607.297 ], [ 538056.248999999952503, 180610.062000000994885 ], [ 538059.0, 180612.26600000099279 ], [ 538057.692000000039116, 180603.101 ], [ 538056.707000000053085, 180596.198000000993488 ], [ 538055.645000000018626, 180588.76 ], [ 538054.615, 180581.546 ], [ 538054.363000000012107, 180579.779999999009306 ], [ 538052.236000000033528, 180564.880000000994187 ], [ 538050.150000000023283, 180550.267999998992309 ], [ 538043.368299999972805, 180502.7563 ], [ 538020.1078, 180506.605599998991238 ], [ 538017.745, 180490.397 ], [ 538017.601000000024214, 180489.409000000014203 ], [ 538017.50199999997858, 180488.730000000010477 ], [ 538015.163999999989755, 180472.699999998993007 ], [ 538012.125, 180451.85899999900721 ], [ 537988.59499999997206, 180455.227000000013504 ], [ 537980.687999999965541, 180456.35899999900721 ], [ 537977.812999999965541, 180436.687000000994885 ], [ 537977.0, 180430.437000000994885 ], [ 538005.375, 180426.203 ], [ 537998.85999999998603, 180381.720000000990694 ], [ 537991.515999999945052, 180331.579 ], [ 537991.125, 180328.905999998998595 ], [ 537990.687999999965541, 180324.547 ], [ 537991.75, 180321.797 ], [ 537994.248999999952503, 180319.51600000099279 ], [ 538043.875, 180289.48399999900721 ], [ 538031.312999999965541, 180276.14100000099279 ], [ 537987.875, 180300.844000001001405 ], [ 537986.126000000047497, 180294.547 ], [ 537983.812999999965541, 180292.203 ], [ 537980.998999999952503, 180291.469000001001405 ], [ 537943.75, 180297.562000000994885 ], [ 537939.375, 180299.672 ], [ 537935.0, 180301.10899999900721 ], [ 537930.0, 180301.98399999900721 ], [ 537924.687999999965541, 180302.172 ], [ 537918.687999999965541, 180301.23399999900721 ], [ 537915.564000000013039, 180300.812000000994885 ], [ 537870.5, 180306.98399999900721 ], [ 537866.75, 180304.047 ], [ 537865.398999999975786, 180295.578 ], [ 537860.437999999965541, 180264.48399999900721 ], [ 537859.481000000028871, 180258.01600000099279 ], [ 537833.206, 180261.824999998993007 ], [ 537832.0, 180262.0 ], [ 537821.832000000053085, 180263.658 ], [ 537740.0, 180277.0 ], [ 537720.206, 180279.582 ], [ 537658.446, 180287.636999999987893 ], [ 537645.876000000047497, 180289.277000000991393 ], [ 537625.0, 180292.0 ], [ 537629.0, 180322.0 ], [ 537629.0, 180324.0 ], [ 537627.0, 180328.0 ], [ 537625.0, 180330.0 ], [ 537623.78000000002794, 180330.914999998989515 ], [ 537621.0, 180333.0 ], [ 537599.0, 180336.0 ], [ 537555.0, 180343.0 ], [ 537500.0, 180350.0 ], [ 537462.897, 180356.184 ], [ 537440.0, 180360.0 ], [ 537430.986000000033528, 180361.002 ], [ 537424.885, 180361.679 ], [ 537422.0, 180362.0 ], [ 537364.0, 180371.0 ], [ 537307.729999999981374, 180379.479 ], [ 537291.0, 180382.0 ], [ 537288.0, 180382.0 ], [ 537285.0, 180381.0 ], [ 537281.0, 180380.0 ], [ 537279.0, 180378.0 ], [ 537278.0, 180377.0 ], [ 537273.0, 180358.0 ], [ 537270.0, 180356.0 ], [ 537267.998999999952503, 180355.0 ], [ 537263.0, 180355.0 ], [ 537243.701, 180357.6170000009879 ], [ 537241.253999999957159, 180342.630999999004416 ], [ 537236.243000000016764, 180311.937000000994885 ], [ 537218.939000000013039, 180315.373 ], [ 537207.302000000025146, 180310.460000001010485 ], [ 537157.177000000025146, 180294.019999999989523 ], [ 537119.42000000004191, 180281.636 ], [ 537109.692000000039116, 180278.445 ], [ 537120.0, 180261.0 ], [ 537120.0, 180251.0 ], [ 537119.0, 180240.0 ], [ 537123.0, 180232.0 ], [ 537126.0, 180219.0 ], [ 537126.0, 180212.0 ], [ 537123.0, 180201.0 ], [ 537122.0, 180199.0 ], [ 537121.0, 180197.0 ], [ 537118.0, 180193.0 ], [ 537116.0, 180188.0 ], [ 537116.0, 180184.0 ], [ 537117.0, 180176.0 ], [ 537118.0, 180171.0 ], [ 537119.0, 180170.0 ], [ 537121.0, 180167.0 ], [ 537126.0, 180164.0 ], [ 537131.0, 180162.0 ], [ 537133.0, 180162.0 ], [ 537126.0, 180148.0 ], [ 537124.0, 180137.0 ], [ 537125.0, 180128.0 ], [ 537126.0, 180104.0 ], [ 537124.108, 180090.377 ], [ 537121.0, 180068.0 ], [ 537118.03000000002794, 180042.01 ], [ 537117.0, 180033.0 ], [ 537114.859000000054948, 180015.870999998995103 ], [ 537114.0, 180009.0 ], [ 537114.0, 180000.0 ], [ 537114.0, 179993.5 ], [ 537114.0, 179992.878 ], [ 537114.0, 179985.806000000011409 ], [ 537114.0, 179962.99900000001071 ], [ 537112.998999999952503, 179954.0 ], [ 537112.584000000031665, 179939.006999998993706 ], [ 537112.162999999942258, 179923.85899999900721 ], [ 537112.035999999963678, 179919.307999999989988 ], [ 537112.0, 179918.0 ], [ 537111.067000000039116, 179918.056000000011409 ], [ 537051.685000000055879, 179921.693 ], [ 537045.832999999984168, 179926.116 ], [ 537038.748999999952503, 179931.470000000990694 ], [ 537028.866000000038184, 179930.072000001004199 ], [ 536867.9632, 179920.283199998986674 ], [ 536870.476000000024214, 179965.225 ], [ 536871.305999999982305, 179979.926999999006512 ], [ 536872.194000000017695, 179995.652000000991393 ], [ 536872.437999999965541, 179999.969000001001405 ], [ 536872.375, 180012.263 ], [ 536872.356999999959953, 180015.851 ], [ 536872.343, 180018.590999999985797 ], [ 536872.187999999965541, 180049.48399999900721 ], [ 536863.38, 180112.232000001007691 ], [ 536863.047999999951571, 180114.598999998997897 ], [ 536861.187999999965541, 180127.85899999900721 ], [ 536860.616000000038184, 180138.221000001009088 ], [ 536858.373999999952503, 180178.85899999900721 ], [ 536857.165000000037253, 180187.861 ], [ 536849.687999999965541, 180243.48399999900721 ], [ 536843.5, 180267.35899999900721 ], [ 536842.280999999959022, 180271.503 ], [ 536841.954000000027008, 180272.613000000012107 ], [ 536839.682999999960884, 180280.336999999010004 ], [ 536839.030999999959022, 180282.555 ], [ 536837.562999999965541, 180287.547 ], [ 536832.824000000022352, 180301.063999998994404 ], [ 536826.625, 180318.74900000001071 ], [ 536806.550999999977648, 180355.755999999004416 ], [ 536803.970300000044517, 180360.507600000011735 ], [ 536797.387499999953434, 180372.647 ], [ 536788.0, 180386.170499998988817 ], [ 536783.25, 180391.584000000992091 ], [ 536780.5, 180394.73399999900721 ], [ 536778.738000000012107, 180396.363000000012107 ], [ 536775.228, 180399.607999998988817 ], [ 536774.968, 180399.847999999008607 ], [ 536774.716999999945983, 180400.079999999987194 ], [ 536769.75, 180404.672 ], [ 536764.755, 180408.89100000099279 ], [ 536759.187999999965541, 180413.405999998998595 ], [ 536751.25, 180419.203 ], [ 536747.5, 180421.780999998998595 ], [ 536739.187999999965541, 180424.76600000099279 ], [ 536729.375, 180430.625 ], [ 536726.160999999963678, 180433.567000000010012 ], [ 536725.125, 180434.51600000099279 ], [ 536722.976999999955297, 180437.044 ], [ 536721.26, 180439.063999998994404 ], [ 536718.189000000013039, 180442.679 ], [ 536715.854999999981374, 180445.426000000996282 ], [ 536711.662000000011176, 180450.361 ], [ 536703.334599999943748, 180460.207400000013877 ], [ 536767.501000000047497, 180520.339 ], [ 536769.089000000036322, 180521.828 ], [ 536787.312999999965541, 180538.905999998998595 ], [ 536808.562999999965541, 180563.719000001001405 ], [ 536815.484000000054948, 180572.710000001010485 ], [ 536820.375, 180579.062000000994885 ], [ 536822.576, 180583.613000000012107 ], [ 536823.375, 180585.26600000099279 ], [ 536825.214000000036322, 180587.546 ], [ 536825.538999999989755, 180587.948999999003718 ], [ 536826.5, 180589.14100000099279 ], [ 536829.75, 180591.561000001005596 ], [ 536830.5, 180592.186000001005596 ], [ 536832.09499999997206, 180593.511999999987893 ], [ 536832.564999999944121, 180593.904999999009306 ], [ 536835.812999999965541, 180596.60899999900721 ], [ 536836.425000000046566, 180597.425000001006993 ], [ 536837.569000000017695, 180598.948000000993488 ], [ 536839.062999999965541, 180600.937000000994885 ], [ 536839.302000000025146, 180601.385 ], [ 536840.875, 180604.328 ], [ 536841.13, 180604.98399999900721 ], [ 536844.937999999965541, 180614.780999998998595 ], [ 536855.0, 180615.155999998998595 ], [ 536855.125, 180611.26600000099279 ], [ 536856.783999999985099, 180611.357000001007691 ], [ 536865.829000000027008, 180611.852000000013504 ], [ 536875.375, 180612.375 ], [ 536875.728, 180606.62599999998929 ], [ 536875.75, 180606.26600000099279 ], [ 536882.696, 180607.021 ], [ 536898.875, 180608.780999998998595 ], [ 536904.160999999963678, 180609.574999998993007 ], [ 536915.49800000002142, 180611.276000001002103 ], [ 536920.729999999981374, 180612.063999998994404 ], [ 536938.126000000047497, 180614.675000001006993 ], [ 536944.702999999979511, 180615.663000000989996 ], [ 536945.525999999954365, 180615.787000000011176 ], [ 536950.682000000029802, 180616.561000001005596 ], [ 536955.687999999965541, 180617.312000000994885 ], [ 536962.003000000026077, 180618.432999999989988 ], [ 536963.987500000046566, 180618.776000001002103 ], [ 536965.807000000029802, 180618.935000000987202 ], [ 536968.952999999979511, 180619.211999999010004 ], [ 536970.246000000042841, 180619.325999999011401 ], [ 536975.942000000039116, 180619.828 ], [ 536978.3445, 180620.033 ], [ 536990.75, 180620.26600000099279 ], [ 536994.988999999943189, 180619.954 ], [ 536995.381000000052154, 180619.925000001006993 ], [ 536998.457000000053085, 180619.699999998993007 ], [ 537001.814000000013039, 180619.453 ], [ 537002.768999999971129, 180625.498 ], [ 537004.625, 180637.219000001001405 ], [ 537007.310999999986961, 180652.297 ], [ 537007.474000000045635, 180653.21099999899161 ], [ 537007.812999999965541, 180655.10899999900721 ], [ 537008.888999999966472, 180659.717 ], [ 537010.196, 180665.312999999005115 ], [ 537010.875, 180668.219000001001405 ], [ 537011.5, 180670.231000000989297 ], [ 537012.525499999988824, 180673.529999999009306 ], [ 537015.437999999965541, 180682.905999998998595 ], [ 537018.973, 180692.994999999005813 ], [ 537020.875, 180698.422 ], [ 537024.73699999996461, 180708.446 ], [ 537024.942999999970198, 180708.979 ], [ 537025.812999999965541, 180711.23399999900721 ], [ 537032.275999999954365, 180725.498 ], [ 537033.062999999965541, 180727.23399999900721 ], [ 537041.187999999965541, 180742.687000000994885 ], [ 537041.876000000047497, 180743.869999999005813 ], [ 537043.072999999974854, 180745.926999999006512 ], [ 537043.523000000044703, 180746.700999999011401 ], [ 537048.557999999960884, 180755.357000001007691 ], [ 537058.687000000034459, 180772.76600000099279 ], [ 537060.246999999973923, 180775.401000001002103 ], [ 537066.25, 180785.547 ], [ 537070.812999999965541, 180791.672 ], [ 537073.187999999965541, 180794.51600000099279 ], [ 537074.34699999995064, 180795.459000000992091 ], [ 537078.552999999956228, 180798.880000000994187 ], [ 537087.714999999967404, 180806.333000001002802 ], [ 537094.125, 180811.546 ], [ 537099.591000000014901, 180815.977000000013504 ], [ 537102.557999999960884, 180818.381999998993706 ], [ 537105.974999999976717, 180821.152000000991393 ], [ 537116.613000000012107, 180829.776000001002103 ], [ 537116.843, 180829.961999999010004 ], [ 537118.126000000047497, 180830.99900000001071 ], [ 537122.202999999979511, 180826.425000001006993 ], [ 537124.192000000039116, 180824.192000000010012 ], [ 537125.886999999987893, 180822.289999998989515 ], [ 537130.794, 180816.783 ], [ 537134.13800000003539, 180813.028000001009787 ], [ 537138.445500000030734, 180808.193499999004416 ], [ 537143.833499999949709, 180802.241 ], [ 537144.84499999997206, 180801.011 ], [ 537145.312999999965541, 180800.486 ], [ 537155.756000000052154, 180788.76600000099279 ], [ 537160.63800000003539, 180783.288000000989996 ], [ 537162.341000000014901, 180781.375 ], [ 537170.501000000047497, 180772.219000001001405 ], [ 537171.890999999945052, 180770.517000001011183 ], [ 537172.773000000044703, 180769.437999999005115 ], [ 537174.116000000038184, 180767.8255 ], [ 537175.45499999995809, 180766.967 ], [ 537176.483, 180766.307 ], [ 537191.875, 180756.437000000994885 ], [ 537203.755, 180749.623 ], [ 537204.773000000044703, 180749.03900000100839 ], [ 537207.9645, 180747.208000001002802 ], [ 537213.243999999947846, 180744.606000000989297 ], [ 537214.0, 180744.23399999900721 ], [ 537215.676499999943189, 180743.782500000990694 ], [ 537226.307999999960884, 180740.919 ], [ 537231.187999999965541, 180739.605000000010477 ], [ 537232.658999999985099, 180739.209000000992091 ], [ 537238.353, 180737.675000001006993 ], [ 537239.875, 180737.26600000099279 ], [ 537243.165999999968335, 180736.470000000990694 ], [ 537245.848, 180735.822000001004199 ], [ 537248.935000000055879, 180735.074999998993007 ], [ 537253.495, 180733.972999999008607 ], [ 537256.349000000045635, 180733.283 ], [ 537267.033000000054017, 180730.699999998993007 ], [ 537270.125, 180729.953 ], [ 537273.608, 180729.209000000992091 ], [ 537275.145999999949709, 180728.880999999004416 ], [ 537288.125, 180726.10899999900721 ], [ 537300.187999999965541, 180723.530999998998595 ], [ 537300.709000000031665, 180723.369000000995584 ], [ 537310.687999999965541, 180720.26600000099279 ], [ 537324.234000000054948, 180715.385500000993488 ], [ 537331.275000000023283, 180712.8485 ], [ 537331.835500000044703, 180712.670499998988817 ], [ 537342.643000000040047, 180709.357000001007691 ], [ 537365.40500000002794, 180702.37599999998929 ], [ 537373.038999999989755, 180700.035 ], [ 537381.089000000036322, 180697.566 ], [ 537382.373999999952503, 180697.172 ], [ 537383.258000000030734, 180696.991 ], [ 537391.368000000016764, 180695.327 ], [ 537396.924, 180694.187000000994885 ], [ 537399.76, 180693.605000000010477 ], [ 537421.537999999942258, 180689.136 ], [ 537424.562999999965541, 180688.51600000099279 ] ] ] } }
]
}
